IRIDIUM 166             
1 43570U 18061B   25199.45266739 -.00000004  00000+0 -85194-5 0  9990
2 43570  86.3990 196.1790 0001946  91.7863 268.3555 14.34217444365566
IRIDIUM 158             
1 43571U 18061C   25199.49072233  .00000035  00000+0  53847-5 0  9991
2 43571  86.3985 196.1729 0002285  84.2236 275.9221 14.34217753365535
IRIDIUM 165             
1 43572U 18061D   25199.51610019  .00000128  00000+0  38764-4 0  9998
2 43572  86.3987 196.2021 0002228  92.0494 268.0957 14.34218672365567
IRIDIUM 155             
1 43573U 18061E   25199.47803767  .00000045  00000+0  90297-5 0  9996
2 43573  86.3982 196.1038 0002116  82.9775 277.1661 14.34217750365521
IRIDIUM 154             
1 43574U 18061F   25199.45901057  .00000066  00000+0  16522-4 0  9997
2 43574  86.3986 196.2287 0002280  88.7543 271.3914 14.34217835365578
IRIDIUM 163             
1 43575U 18061G   25199.50975096  .00000022  00000+0  86271-6 0  9990
2 43575  86.3989 196.1336 0002279  85.0857 275.0599 14.34217633365556
IRIDIUM 156             
1 43576U 18061H   25199.48437980  .00000019  00000+0 -35238-6 0  9997
2 43576  86.3989 196.1512 0001858  84.6411 275.4997 14.34217708365544
IRIDIUM 164             
1 43577U 18061J   25199.46535291 -.00000034  00000+0 -19224-4 0  9993
2 43577  86.3991 196.1940 0002107  94.9181 265.2256 14.34217223365580
